$$SOE
2461288.500000000, A.D. 2026-Sep-05 00:00:00.0000, 3.604699859183979E+07, 1.321122607520537E+08, 8.569741010476455E+06,
2461295.500000000, A.D. 2026-Sep-12 00:00:00.0000, 1.706776237881858E+07, 1.426204368988866E+08, 1.021081562738479E+07,
2461302.500000000, A.D. 2026-Sep-19 00:00:00.0000, -2.196659214280831E+06, 1.508133022112167E+08, 1.168647982100246E+07,
2461309.500000000, A.D. 2026-Sep-26 00:00:00.0000, -2.143696441182869E+07, 1.568925461087716E+08, 1.299864919814054E+07,
2461316.500000000, A.D. 2026-Oct-03 00:00:00.0000, -4.042320528803961E+07, 1.610723905645214E+08, 1.415368756291633E+07,
2461323.500000000, A.D. 2026-Oct-10 00:00:00.0000, -5.898977825371496E+07, 1.635621688228189E+08, 1.516040890147902E+07,
2461330.500000000, A.D. 2026-Oct-17 00:00:00.0000, -7.702088382332624E+07, 1.645570114591805E+08, 1.602872302861908E+07,
2461337.500000000, A.D. 2026-Oct-24 00:00:00.0000, -9.443814012667167E+07, 1.642337931301087E+08, 1.676878010818471E+07,
2461344.500000000, A.D. 2026-Oct-31 00:00:00.0000, -1.111907266580313E+08, 1.627501918396360E+08, 1.739046548937464E+07,
2461351.500000000, A.D. 2026-Nov-07 00:00:00.0000, -1.272478435076437E+08, 1.602454304358440E+08, 1.790312549325140E+07,
2461358.500000000, A.D. 2026-Nov-14 00:00:00.0000, -1.425930750918625E+08, 1.568418220343831E+08, 1.831543859678788E+07,
2461365.500000000, A.D. 2026-Nov-21 00:00:00.0000, -1.572202373254113E+08, 1.526466124694014E+08, 1.863537465686888E+07,
2461372.500000000, A.D. 2026-Nov-28 00:00:00.0000, -1.711303446084471E+08, 1.477538416168019E+08, 1.887020485939819E+07,
2461379.500000000, A.D. 2026-Dec-05 00:00:00.0000, -1.843294030052561E+08, 1.422460857996280E+08, 1.902653873345757E+07,
2461386.500000000, A.D. 2026-Dec-12 00:00:00.0000, -1.968268086047929E+08, 1.361960257915009E+08, 1.911037427169248E+07,
2461393.500000000, A.D. 2026-Dec-19 00:00:00.0000, -2.086341887926975E+08, 1.296678246794988E+08, 1.912715291019332E+07,
2461400.500000000, A.D. 2026-Dec-26 00:00:00.0000, -2.197645660988872E+08, 1.227183208616828E+08, 1.908181448947603E+07,
2461407.500000000, A.D. 2027-Jan-02 00:00:00.0000, -2.302317565649611E+08, 1.153980521944377E+08, 1.897884954494376E+07,
2461414.500000000, A.D. 2027-Jan-09 00:00:00.0000, -2.400499387474664E+08, 1.077521311553747E+08, 1.882234763950806E+07,
2461421.500000000, A.D. 2027-Jan-16 00:00:00.0000, -2.492333470065407E+08, 9.982099112270127E+07, 1.861604124368658E+07,
2461428.500000000, A.D. 2027-Jan-23 00:00:00.0000, -2.577960553868049E+08, 9.164102242513002E+07, 1.836334511730075E+07,
2461435.500000000, A.D. 2027-Jan-30 00:00:00.0000, -2.657518274603664E+08, 8.324511477553990E+07, 1.806739138524085E+07,
2461442.500000000, A.D. 2027-Feb-06 00:00:00.0000, -2.731140139121544E+08, 7.466312093883145E+07, 1.773106063415570E+07,
2461449.500000000, A.D. 2027-Feb-13 00:00:00.0000, -2.798954852987610E+08, 6.592225529098323E+07, 1.735700955481457E+07,
2461456.500000000, A.D. 2027-Feb-20 00:00:00.0000, -2.861085927606462E+08, 5.704743700487976E+07, 1.694769566703159E+07,
2461463.500000000, A.D. 2027-Feb-27 00:00:00.0000, -2.917651482321818E+08, 4.806158349807438E+07, 1.650539910318886E+07,
2461470.500000000, A.D. 2027-Mar-06 00:00:00.0000, -2.968764159099820E+08, 3.898586348359071E+07, 1.603224166926874E+07,
2461477.500000000, A.D. 2027-Mar-13 00:00:00.0000, -3.014531127093386E+08, 2.983991787100798E+07, 1.553020380267909E+07,
2461484.500000000, A.D. 2027-Mar-20 00:00:00.0000, -3.055054159921240E+08, 2.064205286322332E+07, 1.500113973383521E+07,
2461491.500000000, A.D. 2027-Mar-27 00:00:00.0000, -3.090429762732080E+08, 1.140940904553551E+07, 1.444679102979578E+07,
2461498.500000000, A.D. 2027-Apr-03 00:00:00.0000, -3.120749331655669E+08, 2.158110066843847E+06, 1.386879871224719E+07,
2461505.500000000, A.D. 2027-Apr-10 00:00:00.0000, -3.146099333863784E+08, -7.096605992514741E+06, 1.326871413624969E+07,
2461512.500000000, A.D. 2027-Apr-17 00:00:00.0000, -3.166561499984632E+08, -1.634026997754809E+07, 1.264800879354165E+07,
2461519.500000000, A.D. 2027-Apr-24 00:00:00.0000, -3.182213022299514E+08, -2.555907758556320E+07, 1.200808317344560E+07,
2461526.500000000, A.D. 2027-May-01 00:00:00.0000, -3.193126751581814E+08, -3.473979594336694E+07, 1.135027478244571E+07,
2461533.500000000, A.D. 2027-May-08 00:00:00.0000, -3.199371386582302E+08, -4.386967846757512E+07, 1.067586546566835E+07,
2461540.500000000, A.D. 2027-May-15 00:00:00.0000, -3.201011669155881E+08, -5.293638566533781E+07, 9.986088342597708E+06,
2461547.500000000, A.D. 2027-May-22 00:00:00.0000, -3.198108599485773E+08, -6.192791326904737E+07, 9.282134374999883E+06,
2461554.500000000, A.D. 2027-May-29 00:00:00.0000, -3.190719637320847E+08, -7.083252812848818E+07, 8.565158217097860E+06,
2461561.500000000, A.D. 2027-Jun-05 00:00:00.0000, -3.178898880283554E+08, -7.963870780457060E+07, 7.836283593806412E+06,
2461568.500000000, A.D. 2027-Jun-12 00:00:00.0000, -3.162697239533384E+08, -8.833508261269502E+07, 7.096608491198879E+06,
2461575.500000000, A.D. 2027-Jun-19 00:00:00.0000, -3.142162616664280E+08, -9.691038031935021E+07, 6.347210172333706E+06,
2461582.500000000, A.D. 2027-Jun-26 00:00:00.0000, -3.117340079964281E+08, -1.053533730863876E+08, 5.589150026772171E+06,
2461589.500000000, A.D. 2027-Jul-03 00:00:00.0000, -3.088272039883631E+08, -1.136528260339356E+08, 4.823478295186125E+06,
2461596.500000000, A.D. 2027-Jul-10 00:00:00.0000, -3.054998424713089E+08, -1.217974468294389E+08, 4.051238717406444E+06,
2461603.500000000, A.D. 2027-Jul-17 00:00:00.0000, -3.017556857712989E+08, -1.297758357854285E+08, 3.273473147374131E+06,
2461610.500000000, A.D. 2027-Jul-24 00:00:00.0000, -2.975982836005477E+08, -1.375764359891046E+08, 2.491226165420651E+06,
2461617.500000000, A.D. 2027-Jul-31 00:00:00.0000, -2.930309909301096E+08, -1.451874826942018E+08, 1.705549720239110E+06,
2461624.500000000, A.D. 2027-Aug-07 00:00:00.0000, -2.880569863001035E+08, -1.525969502849450E+08, 9.175079658257365E+05,
2461631.500000000, A.D. 2027-Aug-14 00:00:00.0000, -2.826792931630726E+08, -1.597924965141307E+08, 1.281825392236635E+05,
2461638.500000000, A.D. 2027-Aug-21 00:00:00.0000, -2.769008039902222E+08, -1.667614068081877E+08, -6.613219934032485E+05,
2461645.500000000, A.D. 2027-Aug-28 00:00:00.0000, -2.707243041238860E+08, -1.734905368316313E+08, -1.449872674229585E+06,
2461652.500000000, A.D. 2027-Sep-04 00:00:00.0000, -2.641524970454207E+08, -1.799662501557752E+08, -2.236302290398173E+06,
2461659.500000000, A.D. 2027-Sep-11 00:00:00.0000, -2.571880330289553E+08, -1.861743509829442E+08, -3.019402956125498E+06,
2461666.500000000, A.D. 2027-Sep-18 00:00:00.0000, -2.498335417354248E+08, -1.921000118022414E+08, -3.797919116423339E+06,
2461673.500000000, A.D. 2027-Sep-25 00:00:00.0000, -2.420916693515674E+08, -1.977276952014405E+08, -4.570539898725539E+06,
2461680.500000000, A.D. 2027-Oct-02 00:00:00.0000, -2.339651212090883E+08, -2.030410688509004E+08, -5.335890700364038E+06,
2461687.500000000, A.D. 2027-Oct-09 00:00:00.0000, -2.254567110774753E+08, -2.080229125840162E+08, -6.092523878154397E+06,
2461694.500000000, A.D. 2027-Oct-16 00:00:00.0000, -2.165694185335259E+08, -2.126550164191927E+08, -6.838908391658410E+06,
2461701.500000000, A.D. 2027-Oct-23 00:00:00.0000, -2.073064559399129E+08, -2.169180681885369E+08, -7.573418240612015E+06,
2461708.500000000, A.D. 2027-Oct-30 00:00:00.0000, -1.976713468816338E+08, -2.207915286777880E+08, -8.294319468284577E+06,
2461715.500000000, A.D. 2027-Nov-06 00:00:00.0000, -1.876680199952848E+08, -2.242534914868994E+08, -8.999755283362851E+06,
2461722.500000000, A.D. 2027-Nov-13 00:00:00.0000, -1.773009236235158E+08, -2.272805278215861E+08, -9.687728994933933E+06,
2461729.500000000, A.D. 2027-Nov-20 00:00:00.0000, -1.665751626857201E+08, -2.298475163319513E+08, -1.035608485903870E+07,
2461736.500000000, A.D. 2027-Nov-27 00:00:00.0000, -1.554966615195040E+08, -2.319274527735296E+08, -1.100248633359911E+07,
2461743.500000000, A.D. 2027-Dec-04 00:00:00.0000, -1.440723614711880E+08, -2.334912361568005E+08, -1.162439099848314E+07,
2461750.500000000, A.D. 2027-Dec-11 00:00:00.0000, -1.323104623200995E+08, -2.345074298382202E+08, -1.221902160060741E+07,
2461757.500000000, A.D. 2027-Dec-18 00:00:00.0000, -1.202207180881474E+08, -2.349419954197151E+08, -1.278333261088136E+07,
2461764.500000000, A.D. 2027-Dec-25 00:00:00.0000, -1.078148008684608E+08, -2.347579972615261E+08, -1.331397153258170E+07,
2461771.500000000, A.D. 2028-Jan-01 00:00:00.0000, -9.510675025460303E+07, -2.339152760675392E+08, -1.380723407282701E+07,
$$EOE